{"type": "FeatureCollection", "features": [ {"type": "Feature", "properties": {"norad_id": 44804, "name": "CARTOSAT-3", "group": "resource", "lat": 72.81946111803202, "lon": -103.42863334025077, "alt_km": 493.79324279229695, "timestamp": "2025-12-17T23:38:06.520837+00:00", "meta": {"OBJECT_NAME": "CARTOSAT-3", "OBJECT_ID": "2019-081A", "EPOCH": "2025-12-17T15:16:10.622784", "MEAN_MOTION": 15.19195699, "ECCENTRICITY": 0.00139694, "INCLINATION": 97.4583, "RA_OF_ASC_NODE": 51.158, "ARG_OF_PERICENTER": 67.8033, "MEAN_ANOMALY": 292.4682, "EPHEMERIS_TYPE": 0, "CLASSIFICATION_TYPE": "U", "NORAD_CAT_ID": 44804, "ELEMENT_SET_NO": 999, "REV_AT_EPOCH": 33590, "BSTAR": 0.00021678655, "MEAN_MOTION_DOT": 4.504e-05, "MEAN_MOTION_DDOT": 0}, "tle": {"line1": "1 44804U 19081A   25351.63623406  .00004504  00000+0  21679-3 0  9995", "line2": "2 44804  97.4583  51.1580 0013969  67.8033 292.4682 15.19195699335901"}}, "geometry": {"type": "Point", "coordinates": [-103.42863334025077, 72.81946111803202]}}, {"type": "Feature", "properties": {"norad_id": 44819, "name": "GAOFEN-12 01", "group": "resource", "lat": -22.886466936798453, "lon": 174.80562081764737, "alt_km": 631.5656767850478, "timestamp": "2025-12-17T23:38:06.520847+00:00", "meta": {"OBJECT_NAME": "GAOFEN-12 01", "OBJECT_ID": "2019-082A", "EPOCH": "2025-12-17T14:36:42.002208", "MEAN_MOTION": 14.80663101, "ECCENTRICITY": 0.00016099, "INCLINATION": 97.8124, "RA_OF_ASC_NODE": 357.7621, "ARG_OF_PERICENTER": 207.5487, "MEAN_ANOMALY": 152.564, "EPHEMERIS_TYPE": 0, "CLASSIFICATION_TYPE": "U", "NORAD_CAT_ID": 44819, "ELEMENT_SET_NO": 999, "REV_AT_EPOCH": 32722, "BSTAR": 6.2807108e-05, "MEAN_MOTION_DOT": 4.32e-06, "MEAN_MOTION_DDOT": 0}, "tle": {"line1": "1 44819U 19082A   25351.60881947  .00000432  00000+0  62807-4 0  9990", "line2": "2 44819  97.8124 357.7621 0001609 207.5487 152.5640 14.80663101327228"}}, "geometry": {"type": "Point", "coordinates": [174.80562081764737, -22.886466936798453]}}, {"type": "Feature", "properties": {"norad_id": 44873, "name": "CSG-1", "group": "resource", "lat": -17.794803879688963, "lon": 175.7776905921057, "alt_km": 627.8197501718323, "timestamp": "2025-12-17T23:38:06.520857+00:00", "meta": {"OBJECT_NAME": "CSG-1", "OBJECT_ID": "2019-092A", "EPOCH": "2025-12-17T13:59:40.083648", "MEAN_MOTION": 14.82146949, "ECCENTRICITY": 0.00014926, "INCLINATION": 97.8803, "RA_OF_ASC_NODE": 172.8343, "ARG_OF_PERICENTER": 87.1499, "MEAN_ANOMALY": 272.9885, "EPHEMERIS_TYPE": 0, "CLASSIFICATION_TYPE": "U", "NORAD_CAT_ID": 44873, "ELEMENT_SET_NO": 999, "REV_AT_EPOCH": 32457, "BSTAR": 6.7511096e-05, "MEAN_MOTION_DOT": 4.85e-06, "MEAN_MOTION_DDOT": 0}, "tle": {"line1": "1 44873U 19092A   25351.58310282  .00000485  00000+0  67511-4 0  9992", "line2": "2 44873  97.8803 172.8343 0001492  87.1499 272.9885 14.82146949324575"}}, "geometry": {"type": "Point", "coordinates": [175.7776905921057, -17.794803879688963]}}, {"type": "Feature", "properties": {"norad_id": 46277, "name": "NEMO-HD", "group": "resource", "lat": 21.170974530616757, "lon": -126.16879702520419, "alt_km": 445.14227497643515, "timestamp": "2025-12-17T23:38:06.520867+00:00", "meta": {"OBJECT_NAME": "NEMO-HD", "OBJECT_ID": "2020-061F", "EPOCH": "2025-12-17T15:09:14.874624", "MEAN_MOTION": 15.40429089, "ECCENTRICITY": 0.00015671, "INCLINATION": 97.2212, "RA_OF_ASC_NODE": 50.6675, "ARG_OF_PERICENTER": 52.58, "MEAN_ANOMALY": 307.5589, "EPHEMERIS_TYPE": 0, "CLASSIFICATION_TYPE": "U", "NORAD_CAT_ID": 46277, "ELEMENT_SET_NO": 999, "REV_AT_EPOCH": 29399, "BSTAR": 0.00021945665, "MEAN_MOTION_DOT": 8.798e-05, "MEAN_MOTION_DDOT": 0}, "tle": {"line1": "1 46277U 20061F   25351.63142216  .00008798  00000+0  21946-3 0  9992", "line2": "2 46277  97.2212  50.6675 0001567  52.5800 307.5589 15.40429089293990"}}, "geometry": {"type": "Point", "coordinates": [-126.16879702520419, 21.170974530616757]}}, {"type": "Feature", "properties": {"norad_id": 46984, "name": "SENTINEL-6A", "group": "resource", "lat": 14.97250627523302, "lon": -35.41578978038205, "alt_km": 1339.1134721339185, "timestamp": "2025-12-17T23:38:06.520877+00:00", "meta": {"OBJECT_NAME": "SENTINEL-6A", "OBJECT_ID": "2020-086A", "EPOCH": "2025-12-17T15:17:18.807936", "MEAN_MOTION": 12.80930803, "ECCENTRICITY": 0.00077115, "INCLINATION": 66.0391, "RA_OF_ASC_NODE": 152.136, "ARG_OF_PERICENTER": 269.2447, "MEAN_ANOMALY": 90.7685, "EPHEMERIS_TYPE": 0, "CLASSIFICATION_TYPE": "U", "NORAD_CAT_ID": 46984, "ELEMENT_SET_NO": 999, "REV_AT_EPOCH": 23707, "BSTAR": 6.035652e-05, "MEAN_MOTION_DOT": -4.7e-07, "MEAN_MOTION_DDOT": 0}, "tle": {"line1": "1 46984U 20086A   25351.63702324 -.00000047  00000+0  60357-4 0  9996", "line2": "2 46984  66.0391 152.1360 0007711 269.2447  90.7685 12.80930803237074"}}, "geometry": {"type": "Point", "coordinates": [-35.41578978038205, 14.97250627523302]}}, {"type": "Feature", "properties": {"norad_id": 48079, "name": "GAOFEN-12 02", "group": "resource", "lat": -34.45786213457471, "lon": 160.4384796940492, "alt_km": 634.8591466837133, "timestamp": "2025-12-17T23:38:06.520887+00:00", "meta": {"OBJECT_NAME": "GAOFEN-12 02", "OBJECT_ID": "2021-026A", "EPOCH": "2025-12-17T14:33:33.433344", "MEAN_MOTION": 14.80681077, "ECCENTRICITY": 0.00036047, "INCLINATION": 97.9852, "RA_OF_ASC_NODE": 345.5896, "ARG_OF_PERICENTER": 91.2968, "MEAN_ANOMALY": 268.8657, "EPHEMERIS_TYPE": 0, "CLASSIFICATION_TYPE": "U", "NORAD_CAT_ID": 48079, "ELEMENT_SET_NO": 999, "REV_AT_EPOCH": 25489, "BSTAR": 6.4094875e-05, "MEAN_MOTION_DOT": 4.4e-06, "MEAN_MOTION_DDOT": 0}, "tle": {"line1": "1 48079U 21026A   25351.60663696  .00000440  00000+0  64095-4 0  9992", "line2": "2 48079  97.9852 345.5896 0003604  91.2968 268.8657 14.80681077254890"}}, "geometry": {"type": "Point", "coordinates": [160.4384796940492, -34.45786213457471]}}, {"type": "Feature", "properties": {"norad_id": 48268, "name": "PLEIADES NEO 3", "group": "resource", "lat": -58.7653356898198, "lon": 77.57775104377248, "alt_km": 631.9767363310475, "timestamp": "2025-12-17T23:38:06.520902+00:00", "meta": {"OBJECT_NAME": "PLEIADES NEO 3", "OBJECT_ID": "2021-034A", "EPOCH": "2025-12-17T15:48:00.875808", "MEAN_MOTION": 14.81675299, "ECCENTRICITY": 0.00013421, "INCLINATION": 97.8948, "RA_OF_ASC_NODE": 64.0289, "ARG_OF_PERICENTER": 90.9471, "MEAN_ANOMALY": 269.1895, "EPHEMERIS_TYPE": 0, "CLASSIFICATION_TYPE": "U", "NORAD_CAT_ID": 48268, "ELEMENT_SET_NO": 999, "REV_AT_EPOCH": 25077, "BSTAR": 0.00013675396, "MEAN_MOTION_DOT": 1.024e-05, "MEAN_MOTION_DDOT": 0}, "tle": {"line1": "1 48268U 21034A   25351.65834347  .00001024  00000+0  13675-3 0  9995", "line2": "2 48268  97.8948  64.0289 0001342  90.9471 269.1895 14.81675299250777"}}, "geometry": {"type": "Point", "coordinates": [77.57775104377248, -58.7653356898198]}}, {"type": "Feature", "properties": {"norad_id": 49070, "name": "PLEIADES NEO 4", "group": "resource", "lat": 58.57870825500143, "lon": -102.52470466943483, "alt_km": 617.5957447634901, "timestamp": "2025-12-17T23:38:06.520913+00:00", "meta": {"OBJECT_NAME": "PLEIADES NEO 4", "OBJECT_ID": "2021-073E", "EPOCH": "2025-12-17T16:36:37.305216", "MEAN_MOTION": 14.81674474, "ECCENTRICITY": 0.0001243, "INCLINATION": 97.8948, "RA_OF_ASC_NODE": 64.0581, "ARG_OF_PERICENTER": 98.3103, "MEAN_ANOMALY": 261.8251, "EPHEMERIS_TYPE": 0, "CLASSIFICATION_TYPE": "U", "NORAD_CAT_ID": 49070, "ELEMENT_SET_NO": 999, "REV_AT_EPOCH": 23449, "BSTAR": 1.6136e-05, "MEAN_MOTION_DOT": 7.5e-07, "MEAN_MOTION_DDOT": 0}, "tle": {"line1": "1 49070U 21073E   25351.69209844  .00000075  00000+0  16136-4 0  9993", "line2": "2 49070  97.8948  64.0581 0001243  98.3103 261.8251 14.81674474234498"}}, "geometry": {"type": "Point", "coordinates": [-102.52470466943483, 58.57870825500143]}}, {"type": "Feature", "properties": {"norad_id": 49260, "name": "LANDSAT 9", "group": "resource", "lat": 33.444542666005795, "lon": 54.548359406311185, "alt_km": 700.0045098289311, "timestamp": "2025-12-17T23:38:06.520923+00:00", "meta": {"OBJECT_NAME": "LANDSAT 9", "OBJECT_ID": "2021-088A", "EPOCH": "2025-12-17T15:14:23.900640", "MEAN_MOTION": 14.57102986, "ECCENTRICITY": 0.00011225, "INCLINATION": 98.209, "RA_OF_ASC_NODE": 59.675, "ARG_OF_PERICENTER": 90.2558, "MEAN_ANOMALY": 269.8769, "EPHEMERIS_TYPE": 0, "CLASSIFICATION_TYPE": "U", "NORAD_CAT_ID": 49260, "ELEMENT_SET_NO": 999, "REV_AT_EPOCH": 22456, "BSTAR": 9.0036608e-05, "MEAN_MOTION_DOT": 3.6e-06, "MEAN_MOTION_DDOT": 0}, "tle": {"line1": "1 49260U 21088A   25351.63499885  .00000360  00000+0  90037-4 0  9999", "line2": "2 49260  98.2090  59.6750 0001122  90.2558 269.8769 14.57102986224567"}}, "geometry": {"type": "Point", "coordinates": [54.548359406311185, 33.444542666005795]}}, {"type": "Feature", "properties": {"norad_id": 51444, "name": "CSG-2", "group": "resource", "lat": 17.52554900072005, "lon": -4.265088613663354, "alt_km": 622.8308635680842, "timestamp": "2025-12-17T23:38:06.520934+00:00", "meta": {"OBJECT_NAME": "CSG-2", "OBJECT_ID": "2022-008A", "EPOCH": "2025-12-17T14:48:16.506144", "MEAN_MOTION": 14.82150687, "ECCENTRICITY": 0.00014785, "INCLINATION": 97.8802, "RA_OF_ASC_NODE": 172.8659, "ARG_OF_PERICENTER": 84.4261, "MEAN_ANOMALY": 275.7121, "EPHEMERIS_TYPE": 0, "CLASSIFICATION_TYPE": "U", "NORAD_CAT_ID": 51444, "ELEMENT_SET_NO": 999, "REV_AT_EPOCH": 20969, "BSTAR": 0.00010615834, "MEAN_MOTION_DOT": 7.93e-06, "MEAN_MOTION_DDOT": 0}, "tle": {"line1": "1 51444U 22008A   25351.61685771  .00000793  00000+0  10616-3 0  9992", "line2": "2 51444  97.8802 172.8659 0001478  84.4261 275.7121 14.82150687209690"}}, "geometry": {"type": "Point", "coordinates": [-4.265088613663354, 17.52554900072005]}}]}